ORBCOMM FM24 [-]        
1 25478U 98053D   23325.80768863  .00001326  00000+0  51128-3 0  9993
2 25478  45.0083 100.4365 0002167 213.4056 146.6654 14.34909456315000
ORBCOMM FM25 [-]        
1 25479U 98053E   23325.77199221  .00001357  00000+0  52232-3 0  9997
2 25479  45.0074  98.8400 0004371 241.4310 118.6097 14.34894316315293
ORBCOMM FM26 [-]        
1 25480U 98053F   23325.78861763  .00001142  00000+0  45124-3 0  9991
2 25480  45.0071  92.2330 0005988 266.9777  93.0384 14.34444661315240
ORBCOMM FM27 [+]        
1 25481U 98053G   23325.68780932  .00001341  00000+0  51718-3 0  9996
2 25481  45.0056  99.4950 0000979 175.5845 184.5011 14.34866143315210
ORBCOMM FM28 [-]        
1 25482U 98053H   23325.65977554  .00001176  00000+0  45504-3 0  9994
2 25482  45.0080  38.6996 0004869 283.8519  76.1786 14.35356689315873
ORBCOMM FM30 [-]        
1 25980U 99065A   23325.83661522  .00001246  00000+0  48662-3 0  9992
2 25980  45.0328 277.3720 0006887   5.8300 354.2626 14.34580569252047
ORBCOMM FM31 [-]        
1 25981U 99065B   23325.80354979  .00001161  00000+0  45688-3 0  9996
2 25981  45.0240 271.3565 0003652  15.8061 344.2900 14.34602626251596
ORBCOMM FM32 [+]        
1 25982U 99065C   23325.94042117  .00001176  00000+0  47162-3 0  9995
2 25982  45.0171 283.2656 0005553  26.4716 333.6414 14.33546973252392
