<?xml version="1.0" encoding="UTF-8"?>
<ndm xmlns:xsi="http://www.w3.org/2001/XMLSchema-instance" xsi:noNamespaceSchemaLocation="https://sanaregistry.org/r/ndmxml_unqualified/ndmxml-2.0.0-master-2.0.xsd">
<omm id="CCSDS_OMM_VERS" version="2.0">
<header><CREATION_DATE/><ORIGINATOR/></header><body><segment><metadata><OBJECT_NAME>ORBCOMM FM24 [-]</OBJECT_NAME><OBJECT_ID>1998-053D</OBJECT_ID><CENTER_NAME>EARTH</CENTER_NAME><REF_FRAME>TEME</REF_FRAME><TIME_SYSTEM>UTC</TIME_SYSTEM><MEAN_ELEMENT_THEORY>SGP4</MEAN_ELEMENT_THEORY></metadata><data><meanElements><EPOCH>2023-11-21T19:23:04.297632</EPOCH><MEAN_MOTION>14.34909456</MEAN_MOTION><ECCENTRICITY>.0002167</ECCENTRICITY><INCLINATION>45.0083</INCLINATION><RA_OF_ASC_NODE>100.4365</RA_OF_ASC_NODE><ARG_OF_PERICENTER>213.4056</ARG_OF_PERICENTER><MEAN_ANOMALY>146.6654</MEAN_ANOMALY></meanElements><tleParameters><EPHEMERIS_TYPE>0</EPHEMERIS_TYPE><CLASSIFICATION_TYPE>U</CLASSIFICATION_TYPE><NORAD_CAT_ID>25478</NORAD_CAT_ID><ELEMENT_SET_NO>999</ELEMENT_SET_NO><REV_AT_EPOCH>31500</REV_AT_EPOCH><BSTAR>.51128E-3</BSTAR><MEAN_MOTION_DOT>.1326E-4</MEAN_MOTION_DOT><MEAN_MOTION_DDOT>0</MEAN_MOTION_DDOT></tleParameters></data></segment></body></omm>
<omm id="CCSDS_OMM_VERS" version="2.0">
<header><CREATION_DATE/><ORIGINATOR/></header><body><segment><metadata><OBJECT_NAME>ORBCOMM FM25 [-]</OBJECT_NAME><OBJECT_ID>1998-053E</OBJECT_ID><CENTER_NAME>EARTH</CENTER_NAME><REF_FRAME>TEME</REF_FRAME><TIME_SYSTEM>UTC</TIME_SYSTEM><MEAN_ELEMENT_THEORY>SGP4</MEAN_ELEMENT_THEORY></metadata><data><meanElements><EPOCH>2023-11-21T18:31:40.126944</EPOCH><MEAN_MOTION>14.34894316</MEAN_MOTION><ECCENTRICITY>.0004371</ECCENTRICITY><INCLINATION>45.0074</INCLINATION><RA_OF_ASC_NODE>98.8400</RA_OF_ASC_NODE><ARG_OF_PERICENTER>241.4310</ARG_OF_PERICENTER><MEAN_ANOMALY>118.6097</MEAN_ANOMALY></meanElements><tleParameters><EPHEMERIS_TYPE>0</EPHEMERIS_TYPE><CLASSIFICATION_TYPE>U</CLASSIFICATION_TYPE><NORAD_CAT_ID>25479</NORAD_CAT_ID><ELEMENT_SET_NO>999</ELEMENT_SET_NO><REV_AT_EPOCH>31529</REV_AT_EPOCH><BSTAR>.52232E-3</BSTAR><MEAN_MOTION_DOT>.1357E-4</MEAN_MOTION_DOT><MEAN_MOTION_DDOT>0</MEAN_MOTION_DDOT></tleParameters></data></segment></body></omm>
<omm id="CCSDS_OMM_VERS" version="2.0">
<header><CREATION_DATE/><ORIGINATOR/></header><body><segment><metadata><OBJECT_NAME>ORBCOMM FM26 [-]</OBJECT_NAME><OBJECT_ID>1998-053F</OBJECT_ID><CENTER_NAME>EARTH</CENTER_NAME><REF_FRAME>TEME</REF_FRAME><TIME_SYSTEM>UTC</TIME_SYSTEM><MEAN_ELEMENT_THEORY>SGP4</MEAN_ELEMENT_THEORY></metadata><data><meanElements><EPOCH>2023-11-21T18:55:36.563232</EPOCH><MEAN_MOTION>14.34444661</MEAN_MOTION><ECCENTRICITY>.0005988</ECCENTRICITY><INCLINATION>45.0071</INCLINATION><RA_OF_ASC_NODE>92.2330</RA_OF_ASC_NODE><ARG_OF_PERICENTER>266.9777</ARG_OF_PERICENTER><MEAN_ANOMALY>93.0384</MEAN_ANOMALY></meanElements><tleParameters><EPHEMERIS_TYPE>0</EPHEMERIS_TYPE><CLASSIFICATION_TYPE>U</CLASSIFICATION_TYPE><NORAD_CAT_ID>25480</NORAD_CAT_ID><ELEMENT_SET_NO>999</ELEMENT_SET_NO><REV_AT_EPOCH>31524</REV_AT_EPOCH><BSTAR>.45124E-3</BSTAR><MEAN_MOTION_DOT>.1142E-4</MEAN_MOTION_DOT><MEAN_MOTION_DDOT>0</MEAN_MOTION_DDOT></tleParameters></data></segment></body></omm>
<omm id="CCSDS_OMM_VERS" version="2.0">
<header><CREATION_DATE/><ORIGINATOR/></header><body><segment><metadata><OBJECT_NAME>ORBCOMM FM27 [+]</OBJECT_NAME><OBJECT_ID>1998-053G</OBJECT_ID><CENTER_NAME>EARTH</CENTER_NAME><REF_FRAME>TEME</REF_FRAME><TIME_SYSTEM>UTC</TIME_SYSTEM><MEAN_ELEMENT_THEORY>SGP4</MEAN_ELEMENT_THEORY></metadata><data><meanElements><EPOCH>2023-11-21T16:30:26.725248</EPOCH><MEAN_MOTION>14.34866143</MEAN_MOTION><ECCENTRICITY>.0000979</ECCENTRICITY><INCLINATION>45.0056</INCLINATION><RA_OF_ASC_NODE>99.4950</RA_OF_ASC_NODE><ARG_OF_PERICENTER>175.5845</ARG_OF_PERICENTER><MEAN_ANOMALY>184.5011</MEAN_ANOMALY></meanElements><tleParameters><EPHEMERIS_TYPE>0</EPHEMERIS_TYPE><CLASSIFICATION_TYPE>U</CLASSIFICATION_TYPE><NORAD_CAT_ID>25481</NORAD_CAT_ID><ELEMENT_SET_NO>999</ELEMENT_SET_NO><REV_AT_EPOCH>31521</REV_AT_EPOCH><BSTAR>.51718E-3</BSTAR><MEAN_MOTION_DOT>.1341E-4</MEAN_MOTION_DOT><MEAN_MOTION_DDOT>0</MEAN_MOTION_DDOT></tleParameters></data></segment></body></omm>
<omm id="CCSDS_OMM_VERS" version="2.0">
<header><CREATION_DATE/><ORIGINATOR/></header><body><segment><metadata><OBJECT_NAME>ORBCOMM FM28 [-]</OBJECT_NAME><OBJECT_ID>1998-053H</OBJECT_ID><CENTER_NAME>EARTH</CENTER_NAME><REF_FRAME>TEME</REF_FRAME><TIME_SYSTEM>UTC</TIME_SYSTEM><MEAN_ELEMENT_THEORY>SGP4</MEAN_ELEMENT_THEORY></metadata><data><meanElements><EPOCH>2023-11-21T15:50:04.606656</EPOCH><MEAN_MOTION>14.35356689</MEAN_MOTION><ECCENTRICITY>.0004869</ECCENTRICITY><INCLINATION>45.0080</INCLINATION><RA_OF_ASC_NODE>38.6996</RA_OF_ASC_NODE><ARG_OF_PERICENTER>283.8519</ARG_OF_PERICENTER><MEAN_ANOMALY>76.1786</MEAN_ANOMALY></meanElements><tleParameters><EPHEMERIS_TYPE>0</EPHEMERIS_TYPE><CLASSIFICATION_TYPE>U</CLASSIFICATION_TYPE><NORAD_CAT_ID>25482</NORAD_CAT_ID><ELEMENT_SET_NO>999</ELEMENT_SET_NO><REV_AT_EPOCH>31587</REV_AT_EPOCH><BSTAR>.45504E-3</BSTAR><MEAN_MOTION_DOT>.1176E-4</MEAN_MOTION_DOT><MEAN_MOTION_DDOT>0</MEAN_MOTION_DDOT></tleParameters></data></segment></body></omm>
<omm id="CCSDS_OMM_VERS" version="2.0">
<header><CREATION_DATE/><ORIGINATOR/></header><body><segment><metadata><OBJECT_NAME>ORBCOMM FM30 [-]</OBJECT_NAME><OBJECT_ID>1999-065A</OBJECT_ID><CENTER_NAME>EARTH</CENTER_NAME><REF_FRAME>TEME</REF_FRAME><TIME_SYSTEM>UTC</TIME_SYSTEM><MEAN_ELEMENT_THEORY>SGP4</MEAN_ELEMENT_THEORY></metadata><data><meanElements><EPOCH>2023-11-21T20:04:43.555008</EPOCH><MEAN_MOTION>14.34580569</MEAN_MOTION><ECCENTRICITY>.0006887</ECCENTRICITY><INCLINATION>45.0328</INCLINATION><RA_OF_ASC_NODE>277.3720</RA_OF_ASC_NODE><ARG_OF_PERICENTER>5.8300</ARG_OF_PERICENTER><MEAN_ANOMALY>354.2626</MEAN_ANOMALY></meanElements><tleParameters><EPHEMERIS_TYPE>0</EPHEMERIS_TYPE><CLASSIFICATION_TYPE>U</CLASSIFICATION_TYPE><NORAD_CAT_ID>25980</NORAD_CAT_ID><ELEMENT_SET_NO>999</ELEMENT_SET_NO><REV_AT_EPOCH>25204</REV_AT_EPOCH><BSTAR>.48662E-3</BSTAR><MEAN_MOTION_DOT>.1246E-4</MEAN_MOTION_DOT><MEAN_MOTION_DDOT>0</MEAN_MOTION_DDOT></tleParameters></data></segment></body></omm>
<omm id="CCSDS_OMM_VERS" version="2.0">
<header><CREATION_DATE/><ORIGINATOR/></header><body><segment><metadata><OBJECT_NAME>ORBCOMM FM31 [-]</OBJECT_NAME><OBJECT_ID>1999-065B</OBJECT_ID><CENTER_NAME>EARTH</CENTER_NAME><REF_FRAME>TEME</REF_FRAME><TIME_SYSTEM>UTC</TIME_SYSTEM><MEAN_ELEMENT_THEORY>SGP4</MEAN_ELEMENT_THEORY></metadata><data><meanElements><EPOCH>2023-11-21T19:17:06.701856</EPOCH><MEAN_MOTION>14.34602626</MEAN_MOTION><ECCENTRICITY>.0003652</ECCENTRICITY><INCLINATION>45.0240</INCLINATION><RA_OF_ASC_NODE>271.3565</RA_OF_ASC_NODE><ARG_OF_PERICENTER>15.8061</ARG_OF_PERICENTER><MEAN_ANOMALY>344.2900</MEAN_ANOMALY></meanElements><tleParameters><EPHEMERIS_TYPE>0</EPHEMERIS_TYPE><CLASSIFICATION_TYPE>U</CLASSIFICATION_TYPE><NORAD_CAT_ID>25981</NORAD_CAT_ID><ELEMENT_SET_NO>999</ELEMENT_SET_NO><REV_AT_EPOCH>25159</REV_AT_EPOCH><BSTAR>.45688E-3</BSTAR><MEAN_MOTION_DOT>.1161E-4</MEAN_MOTION_DOT><MEAN_MOTION_DDOT>0</MEAN_MOTION_DDOT></tleParameters></data></segment></body></omm>
<omm id="CCSDS_OMM_VERS" version="2.0">
<header><CREATION_DATE/><ORIGINATOR/></header><body><segment><metadata><OBJECT_NAME>ORBCOMM FM32 [+]</OBJECT_NAME><OBJECT_ID>1999-065C</OBJECT_ID><CENTER_NAME>EARTH</CENTER_NAME><REF_FRAME>TEME</REF_FRAME><TIME_SYSTEM>UTC</TIME_SYSTEM><MEAN_ELEMENT_THEORY>SGP4</MEAN_ELEMENT_THEORY></metadata><data><meanElements><EPOCH>2023-11-21T22:34:12.389088</EPOCH><MEAN_MOTION>14.33546973</MEAN_MOTION><ECCENTRICITY>.0005553</ECCENTRICITY><INCLINATION>45.0171</INCLINATION><RA_OF_ASC_NODE>283.2656</RA_OF_ASC_NODE><ARG_OF_PERICENTER>26.4716</ARG_OF_PERICENTER><MEAN_ANOMALY>333.6414</MEAN_ANOMALY></meanElements><tleParameters><EPHEMERIS_TYPE>0</EPHEMERIS_TYPE><CLASSIFICATION_TYPE>U</CLASSIFICATION_TYPE><NORAD_CAT_ID>25982</NORAD_CAT_ID><ELEMENT_SET_NO>999</ELEMENT_SET_NO><REV_AT_EPOCH>25239</REV_AT_EPOCH><BSTAR>.47162E-3</BSTAR><MEAN_MOTION_DOT>.1176E-4</MEAN_MOTION_DOT><MEAN_MOTION_DDOT>0</MEAN_MOTION_DDOT></tleParameters></data></segment></body></omm>

</ndm>
